{
  "links" : {
    "next" : "https://api.nasa.gov/neo/rest/v1/feed?start_date=1995-03-16&end_date=1995-03-16&detailed=true&api_key=t0TVs3DtDT2H8Oy2Zy8m2eVrNsAVKAexjcZXUckd",
    "prev" : "https://api.nasa.gov/neo/rest/v1/feed?start_date=1995-03-14&end_date=1995-03-14&detailed=true&api_key=t0TVs3DtDT2H8Oy2Zy8m2eVrNsAVKAexjcZXUckd",
    "self" : "https://api.nasa.gov/neo/rest/v1/feed?start_date=1995-03-15&end_date=1995-03-15&detailed=true&api_key=t0TVs3DtDT2H8Oy2Zy8m2eVrNsAVKAexjcZXUckd"
  },
  "element_count" : 1,
  "near_earth_objects" : {
    "1995-03-15" : [ {
      "links" : {
        "self" : "https://api.nasa.gov/neo/rest/v1/neo/3182169?api_key=t0TVs3DtDT2H8Oy2Zy8m2eVrNsAVKAexjcZXUckd"
      },
      "neo_reference_id" : "3182169",
      "name" : "(2004 JN1)",
      "nasa_jpl_url" : "http://ssd.jpl.nasa.gov/sbdb.cgi?sstr=3182169",
      "absolute_magnitude_h" : 23.6,
      "estimated_diameter" : {
        "kilometers" : {
          "estimated_diameter_min" : 0.0506471459,
          "estimated_diameter_max" : 0.1132504611
        },
        "meters" : {
          "estimated_diameter_min" : 50.6471458835,
          "estimated_diameter_max" : 113.2504610618
        },
        "miles" : {
          "estimated_diameter_min" : 0.0314706677,
          "estimated_diameter_max" : 0.0703705522
        },
        "feet" : {
          "estimated_diameter_min" : 166.1651821003,
          "estimated_diameter_max" : 371.5566426699
        }
      },
      "is_potentially_hazardous_asteroid" : false,
      "close_approach_data" : [ {
        "close_approach_date" : "1995-03-15",
        "epoch_date_close_approach" : 795254400000,
        "relative_velocity" : {
          "kilometers_per_second" : "3.8380167643",
          "kilometers_per_hour" : "13816.8603514779",
          "miles_per_hour" : "8585.2597000614"
        },
        "miss_distance" : {
          "astronomical" : "0.0864847003",
          "lunar" : "33.6425476074",
          "kilometers" : "12937927",
          "miles" : "8039255"
        },
        "orbiting_body" : "Earth"
      } ],
      "orbital_data" : {
        "orbit_id" : "21",
        "orbit_determination_date" : "2017-04-06 09:12:49",
        "orbit_uncertainty" : "0",
        "minimum_orbit_intersection" : ".0231683",
        "jupiter_tisserand_invariant" : "5.694",
        "epoch_osculation" : "2458000.5",
        "eccentricity" : ".1755281002971447",
        "semi_major_axis" : "1.085053919527081",
        "inclination" : "1.499707987243189",
        "ascending_node_longitude" : "143.9720934468935",
        "orbital_period" : "412.8339519813857",
        "perihelion_distance" : ".8945964663125213",
        "perihelion_argument" : "2.124647144481263",
        "aphelion_distance" : "1.27551137274164",
        "perihelion_time" : "2458019.676041011311",
        "mean_anomaly" : "343.2780837648182",
        "mean_motion" : ".8720213012330731",
        "equinox" : "J2000"
      }
    } ]
  }
}